COSMOS 2425 (716)       
1 29670U 06062A   18032.49466654 -.00000004  00000-0  10000-3 0  9995
2 29670  65.3471 297.1239 0022701 345.5426  26.7096  2.13104971 86424
COSMOS 2426 (717)       
1 29671U 06062B   18033.36715692 -.00000011  00000-0  10000-3 0  9990
2 29671  65.3631 297.1895 0016164 165.0544  13.2574  2.13103120 86442
COSMOS 2433 (720)       
1 32275U 07052A   18032.71886162 -.00000017  00000-0  10000-3 0  9999
2 32275  65.6233  57.9090 0004830 268.4759 107.5168  2.13104857 79940
COSMOS 2432 (719)       
1 32276U 07052B   18032.77579902 -.00000017  00000-0  10000-3 0  9997
2 32276  65.6347  57.9842 0012492 325.6289  46.3111  2.13104023 79942
COSMOS 2434 (721)       
1 32393U 07065A   18033.05555902 -.00000007  00000-0  00000+0 0  9991
2 32393  64.9621 296.1445 0003298  91.4750  71.3160  2.13102933 78657
COSMOS 2436 (723)       
1 32395U 07065C   18032.77615514 -.00000005  00000-0  10000-3 0  9990
2 32395  64.9712 296.2048 0016454 358.6647 359.6030  2.13104286 78573
COSMOS 2456 (730)       
1 36111U 09070A   18033.86621260  .00000030  00000-0  00000+0 0  9996
2 36111  64.1842 175.6917 0003255 343.5179 253.0728  2.13102859 63335
COSMOS 2457 (733)       
1 36112U 09070B   18033.89800633  .00000030  00000-0  00000+0 0  9993
2 36112  64.1652 175.6041 0006877 150.4046 238.1019  2.13101589 63341
COSMOS 2458 (734)       
1 36113U 09070C   18032.71713939  .00000022  00000-0  10000-3 0  9992
2 36113  64.1716 175.6542 0002874  55.9684 194.8236  2.13102081 63313
COSMOS 2459 (731)       
1 36400U 10007A   18032.66815376 -.00000017  00000-0  10000-3 0  9990
2 36400  65.5332  56.9894 0027615 347.2361 209.9046  2.13102241 61662
COSMOS 2461 (735)       
1 36401U 10007B   18033.50374671 -.00000025  00000-0  10000-3 0  9992
2 36401  65.5248  56.9390 0004755  52.4299 336.3379  2.13102175 61687
COSMOS 2460 (732)       
1 36402U 10007C   18033.41322632 -.00000024  00000-0  10000-3 0  9992
2 36402  65.5155  56.9091 0002228 279.4406  80.7894  2.13101762 61680
COSMOS 2464 (736)       
1 37139U 10041C   18033.87105111 -.00000015  00000-0  00000+0 0  9994
2 37139  64.5646 295.9881 0024867  10.7899 285.3903  2.13102780 57757
COSMOS 2471 (701K)      
1 37372U 11009A   18032.96251484 -.00000020  00000-0  00000+0 0  9998
2 37372  65.5125  56.8722 0009563 240.1278 275.4050  2.13107795 53944
COSMOS 2474 (742)       
1 37829U 11055A   18032.64783559  .00000022  00000-0  00000+0 0  9995
2 37829  64.5083 176.3931 0006547 240.7166 359.9246  2.13101900 49306
COSMOS 2476 (744)       
1 37867U 11064A   18032.58735975  .00000022  00000-0  00000-0 0  9990
2 37867  64.4880 176.4608 0016074 238.4979   1.7459  2.13101961 48658
COSMOS 2477 (745)       
1 37868U 11064B   18033.08993197  .00000025  00000-0  00000+0 0  9991
2 37868  64.4967 176.4915 0013930 239.6366 205.1653  2.13101754 48620
COSMOS 2475 (743)       
1 37869U 11064C   18033.18943344  .00000026  00000-0  00000+0 0  9993
2 37869  64.5032 176.4806 0018211 269.0070 208.7459  2.13101944 48635
COSMOS 2485 (747)       
1 39155U 13019A   18033.32894260  .00000027  00000-0  00000+0 0  9994
2 39155  64.6570 176.5156 0016672 233.0731 261.0377  2.13101952 37140
COSMOS 2492 (754)       
1 39620U 14012A   18032.65679736 -.00000018  00000-0  10000-3 0  9995
2 39620  65.4051  56.8390 0015999 323.3386  49.6903  2.13103516 30089
COSMOS 2500 (755)       
1 40001U 14032A   18032.54493914 -.00000017  00000-0  00000-0 0  9997
2 40001  65.3458  56.8245 0007122 224.7858 284.9731  2.13102828 28298
COSMOS 2501 (702K)      
1 40315U 14075A   18032.64334517 -.00000007  00000-0  00000-0 0  9995
2 40315  64.2914 297.2927 0014667 210.6637 177.7880  2.13098509 24706
COSMOS 2514 (751)       
1 41330U 16008A   18032.61130120 -.00000018  00000-0  00000-0 0  9994
2 41330  65.1478  56.9082 0010671 227.0923 154.1604  2.13103402 15467
COSMOS 2516 (753)       
1 41554U 16032A   18032.48699427 -.00000006  00000-0  00000+0 0  9990
2 41554  64.5104 297.1279 0011141 225.8998 311.5514  2.13101686 13067
COSMOS 2522 (752)       
1 42939U 17055A   18033.03905186 -.00000009  00000-0  00000+0 0  9991
2 42939  64.7425 297.0326 0007336 259.6656 207.7065  2.13102073  2833
